{
  "type": "FeatureCollection",
  "features": [
    {
      "type": "Feature",
      "properties": {
        "norad_id": 66517,
        "name": "STARLINK-35937",
        "group": "last-30-days",
        "lat": -12.797978379945844,
        "lon": 58.15563842434727,
        "alt_km": 412.0428163968554,
        "timestamp": "2025-12-09T14:52:24.941519+00:00",
        "meta_object_name": "STARLINK-35937",
        "meta_object_id": "2025-265B",
        "meta_epoch": "2025-12-09T06:00:02.000160",
        "meta_mean_motion": 15.53424968,
        "meta_eccentricity": 0.00017159,
        "meta_inclination": 42.9999,
        "meta_ra_of_asc_node": 74.4347,
        "meta_arg_of_pericenter": 270.4899,
        "meta_mean_anomaly": 161.5973,
        "meta_ephemeris_type": 0,
        "meta_classification_type": "U",
        "meta_norad_cat_id": 66517,
        "meta_element_set_no": 999,
        "meta_rev_at_epoch": 443,
        "meta_bstar": -0.032164721,
        "meta_mean_motion_dot": -0.01849955,
        "meta_mean_motion_ddot": 0,
        "tle_line1": "1 66517U 25265B   25343.25002315 -.01849955  00000+0 -32165-1 0  9990",
        "tle_line2": "2 66517  42.9999  74.4347 0001715 270.4899 161.5973 15.53424968  4431"
      },
      "geometry": {
        "type": "Point",
        "coordinates": [
          58.15563842434727,
          -12.797978379945844
        ]
      }
    },
    {
      "type": "Feature",
      "properties": {
        "norad_id": 66518,
        "name": "STARLINK-35962",
        "group": "last-30-days",
        "lat": -11.526524382666702,
        "lon": 59.61768893373079,
        "alt_km": 411.965844393786,
        "timestamp": "2025-12-09T14:52:24.941529+00:00",
        "meta_object_name": "STARLINK-35962",
        "meta_object_id": "2025-265C",
        "meta_epoch": "2025-12-09T06:00:02.000160",
        "meta_mean_motion": 15.53426464,
        "meta_eccentricity": 0.00016522,
        "meta_inclination": 42.9997,
        "meta_ra_of_asc_node": 74.4291,
        "meta_arg_of_pericenter": 271.0924,
        "meta_mean_anomaly": 162.9146,
        "meta_ephemeris_type": 0,
        "meta_classification_type": "U",
        "meta_norad_cat_id": 66518,
        "meta_element_set_no": 999,
        "meta_rev_at_epoch": 443,
        "meta_bstar": -0.032280281,
        "meta_mean_motion_dot": -0.01855881,
        "meta_mean_motion_ddot": 0,
        "tle_line1": "1 66518U 25265C   25343.25002315 -.01855881  00000+0 -32280-1 0  9994",
        "tle_line2": "2 66518  42.9997  74.4291 0001652 271.0924 162.9146 15.53426464  4434"
      },
      "geometry": {
        "type": "Point",
        "coordinates": [
          59.61768893373079,
          -11.526524382666702
        ]
      }
    },
    {
      "type": "Feature",
      "properties": {
        "norad_id": 66519,
        "name": "STARLINK-35931",
        "group": "last-30-days",
        "lat": -10.247999546925971,
        "lon": 61.067214537863926,
        "alt_km": 411.87944489980237,
        "timestamp": "2025-12-09T14:52:24.941539+00:00",
        "meta_object_name": "STARLINK-35931",
        "meta_object_id": "2025-265D",
        "meta_epoch": "2025-12-09T06:00:02.000160",
        "meta_mean_motion": 15.53420311,
        "meta_eccentricity": 0.00016472,
        "meta_inclination": 42.9999,
        "meta_ra_of_asc_node": 74.4243,
        "meta_arg_of_pericenter": 270.1738,
        "meta_mean_anomaly": 165.7513,
        "meta_ephemeris_type": 0,
        "meta_classification_type": "U",
        "meta_norad_cat_id": 66519,
        "meta_element_set_no": 999,
        "meta_rev_at_epoch": 443,
        "meta_bstar": -0.032051331,
        "meta_mean_motion_dot": -0.01843864,
        "meta_mean_motion_ddot": 0,
        "tle_line1": "1 66519U 25265D   25343.25002315 -.01843864  00000+0 -32051-1 0  9999",
        "tle_line2": "2 66519  42.9999  74.4243 0001647 270.1738 165.7513 15.53420311  4435"
      },
      "geometry": {
        "type": "Point",
        "coordinates": [
          61.067214537863926,
          -10.247999546925971
        ]
      }
    },
    {
      "type": "Feature",
      "properties": {
        "norad_id": 66520,
        "name": "STARLINK-35952",
        "group": "last-30-days",
        "lat": -8.963733936311112,
        "lon": 62.503849060513595,
        "alt_km": 411.74545031606067,
        "timestamp": "2025-12-09T14:52:24.941549+00:00",
        "meta_object_name": "STARLINK-35952",
        "meta_object_id": "2025-265E",
        "meta_epoch": "2025-12-09T06:00:02.000160",
        "meta_mean_motion": 15.53423356,
        "meta_eccentricity": 0.00016773,
        "meta_inclination": 43.0001,
        "meta_ra_of_asc_node": 74.4191,
        "meta_arg_of_pericenter": 271.2268,
        "meta_mean_anomaly": 166.6117,
        "meta_ephemeris_type": 0,
        "meta_classification_type": "U",
        "meta_norad_cat_id": 66520,
        "meta_element_set_no": 999,
        "meta_rev_at_epoch": 443,
        "meta_bstar": -0.032098024,
        "meta_mean_motion_dot": -0.01846441,
        "meta_mean_motion_ddot": 0,
        "tle_line1": "1 66520U 25265E   25343.25002315 -.01846441  00000+0 -32098-1 0  9996",
        "tle_line2": "2 66520  43.0001  74.4191 0001677 271.2268 166.6117 15.53423356  4430"
      },
      "geometry": {
        "type": "Point",
        "coordinates": [
          62.503849060513595,
          -8.963733936311112
        ]
      }
    },
    {
      "type": "Feature",
      "properties": {
        "norad_id": 66521,
        "name": "STARLINK-35915",
        "group": "last-30-days",
        "lat": -7.673707986394891,
        "lon": 63.9308318336547,
        "alt_km": 411.77060787059145,
        "timestamp": "2025-12-09T14:52:24.941559+00:00",
        "meta_object_name": "STARLINK-35915",
        "meta_object_id": "2025-265F",
        "meta_epoch": "2025-12-09T06:00:02.000160",
        "meta_mean_motion": 15.53419809,
        "meta_eccentricity": 0.00015351,
        "meta_inclination": 43,
        "meta_ra_of_asc_node": 74.4143,
        "meta_arg_of_pericenter": 266.86,
        "meta_mean_anomaly": 172.8978,
        "meta_ephemeris_type": 0,
        "meta_classification_type": "U",
        "meta_norad_cat_id": 66521,
        "meta_element_set_no": 999,
        "meta_rev_at_epoch": 443,
        "meta_bstar": -0.032006183,
        "meta_mean_motion_dot": -0.01841468,
        "meta_mean_motion_ddot": 0,
        "tle_line1": "1 66521U 25265F   25343.25002315 -.01841468  00000+0 -32006-1 0  9990",
        "tle_line2": "2 66521  43.0000  74.4143 0001535 266.8600 172.8978 15.53419809  4432"
      },
      "geometry": {
        "type": "Point",
        "coordinates": [
          63.9308318336547,
          -7.673707986394891
        ]
      }
    },
    {
      "type": "Feature",
      "properties": {
        "norad_id": 66522,
        "name": "STARLINK-35946",
        "group": "last-30-days",
        "lat": -6.377382238498915,
        "lon": 65.35082799107433,
        "alt_km": 411.518976820249,
        "timestamp": "2025-12-09T14:52:24.941569+00:00",
        "meta_object_name": "STARLINK-35946",
        "meta_object_id": "2025-265G",
        "meta_epoch": "2025-12-09T06:00:02.000160",
        "meta_mean_motion": 15.53421627,
        "meta_eccentricity": 0.00017191,
        "meta_inclination": 42.9997,
        "meta_ra_of_asc_node": 74.4095,
        "meta_arg_of_pericenter": 271.3745,
        "meta_mean_anomaly": 170.2983,
        "meta_ephemeris_type": 0,
        "meta_classification_type": "U",
        "meta_norad_cat_id": 66522,
        "meta_element_set_no": 999,
        "meta_rev_at_epoch": 443,
        "meta_bstar": -0.032027041,
        "meta_mean_motion_dot": -0.01842751,
        "meta_mean_motion_ddot": 0,
        "tle_line1": "1 66522U 25265G   25343.25002315 -.01842751  00000+0 -32027-1 0  9990",
        "tle_line2": "2 66522  42.9997  74.4095 0001719 271.3745 170.2983 15.53421627  4436"
      },
      "geometry": {
        "type": "Point",
        "coordinates": [
          65.35082799107433,
          -6.377382238498915
        ]
      }
    },
    {
      "type": "Feature",
      "properties": {
        "norad_id": 66523,
        "name": "STARLINK-35969",
        "group": "last-30-days",
        "lat": -5.077372255837176,
        "lon": 66.76369600151334,
        "alt_km": 411.43535357251585,
        "timestamp": "2025-12-09T14:52:24.941581+00:00",
        "meta_object_name": "STARLINK-35969",
        "meta_object_id": "2025-265H",
        "meta_epoch": "2025-12-09T06:00:02.000160",
        "meta_mean_motion": 15.53420653,
        "meta_eccentricity": 0.00017408,
        "meta_inclination": 43.0001,
        "meta_ra_of_asc_node": 74.4048,
        "meta_arg_of_pericenter": 270.3494,
        "meta_mean_anomaly": 173.2427,
        "meta_ephemeris_type": 0,
        "meta_classification_type": "U",
        "meta_norad_cat_id": 66523,
        "meta_element_set_no": 999,
        "meta_rev_at_epoch": 443,
        "meta_bstar": -0.032029136,
        "meta_mean_motion_dot": -0.01842812,
        "meta_mean_motion_ddot": 0,
        "tle_line1": "1 66523U 25265H   25343.25002315 -.01842812  00000+0 -32029-1 0  9991",
        "tle_line2": "2 66523  43.0001  74.4048 0001740 270.3494 173.2427 15.53420653  4431"
      },
      "geometry": {
        "type": "Point",
        "coordinates": [
          66.76369600151334,
          -5.077372255837176
        ]
      }
    }
  ]
}